{
  "type": "FeatureCollection",
  "features": [
    {
      "type": "Feature",
      "properties": {
        "norad_id": 44231,
        "name": "BEIDOU-2 G8 (C01)",
        "group": "gnss",
        "lat": -1.3292322561055463,
        "lon": 18.88499158805018,
        "alt_km": 35763.998266283765,
        "timestamp": "2025-12-02T10:50:47.516411+00:00",
        "meta_object_name": "BEIDOU-2 G8 (C01)",
        "meta_object_id": "2019-027A",
        "meta_epoch": "2025-12-02T04:11:57.616224",
        "meta_mean_motion": 1.00270607,
        "meta_eccentricity": 0.0008225,
        "meta_inclination": 1.6329,
        "meta_ra_of_asc_node": 74.6942,
        "meta_arg_of_pericenter": 255.1212,
        "meta_mean_anomaly": 309.0345,
        "meta_ephemeris_type": 0,
        "meta_classification_type": "U",
        "meta_norad_cat_id": 44231,
        "meta_element_set_no": 999,
        "meta_rev_at_epoch": 2410,
        "meta_bstar": 0,
        "meta_mean_motion_dot": -2.26e-06,
        "meta_mean_motion_ddot": 0,
        "tle_line1": "1 44231U 19027A   25336.17497241 -.00000226  00000+0  00000+0 0  9996",
        "tle_line2": "2 44231   1.6329  74.6942 0008225 255.1212 309.0345  1.00270607 24108"
      },
      "geometry": {
        "type": "Point",
        "coordinates": [
          18.88499158805018,
          -1.3292322561055463
        ]
      }
    },
    {
      "type": "Feature",
      "properties": {
        "norad_id": 44299,
        "name": "COSMOS 2534 (758)",
        "group": "gnss",
        "lat": 43.84944788048449,
        "lon": -133.30444879141336,
        "alt_km": 19138.747993663274,
        "timestamp": "2025-12-02T10:50:47.516428+00:00",
        "meta_object_name": "COSMOS 2534 (758)",
        "meta_object_id": "2019-030A",
        "meta_epoch": "2025-12-01T03:07:57.438624",
        "meta_mean_motion": 2.1310195,
        "meta_eccentricity": 0.00091167,
        "meta_inclination": 64.3652,
        "meta_ra_of_asc_node": 199.2842,
        "meta_arg_of_pericenter": 283.4428,
        "meta_mean_anomaly": 193.0266,
        "meta_ephemeris_type": 0,
        "meta_classification_type": "U",
        "meta_norad_cat_id": 44299,
        "meta_element_set_no": 999,
        "meta_rev_at_epoch": 5070,
        "meta_bstar": 0,
        "meta_mean_motion_dot": 9.9e-07,
        "meta_mean_motion_ddot": 0,
        "tle_line1": "1 44299U 19030A   25335.13052591  .00000099  00000+0  00000+0 0  9991",
        "tle_line2": "2 44299  64.3652 199.2842 0009116 283.4428 193.0266  2.13101950 50700"
      },
      "geometry": {
        "type": "Point",
        "coordinates": [
          -133.30444879141336,
          43.84944788048449
        ]
      }
    },
    {
      "type": "Feature",
      "properties": {
        "norad_id": 44337,
        "name": "BEIDOU-3 IGSO-2 (C39)",
        "group": "gnss",
        "lat": -10.72110550074847,
        "lon": -11.840976539939687,
        "alt_km": 35631.073390603175,
        "timestamp": "2025-12-02T10:50:47.516446+00:00",
        "meta_object_name": "BEIDOU-3 IGSO-2 (C39)",
        "meta_object_id": "2019-035A",
        "meta_epoch": "2025-12-01T05:17:49.661952",
        "meta_mean_motion": 1.00274502,
        "meta_eccentricity": 0.00376064,
        "meta_inclination": 55.2223,
        "meta_ra_of_asc_node": 160.6035,
        "meta_arg_of_pericenter": 202.2564,
        "meta_mean_anomaly": 266.4761,
        "meta_ephemeris_type": 0,
        "meta_classification_type": "U",
        "meta_norad_cat_id": 44337,
        "meta_element_set_no": 999,
        "meta_rev_at_epoch": 2368,
        "meta_bstar": 0,
        "meta_mean_motion_dot": -2.5e-07,
        "meta_mean_motion_ddot": 0,
        "tle_line1": "1 44337U 19035A   25335.22071368 -.00000025  00000+0  00000+0 0  9992",
        "tle_line2": "2 44337  55.2223 160.6035 0037606 202.2564 266.4761  1.00274502 23688"
      },
      "geometry": {
        "type": "Point",
        "coordinates": [
          -11.840976539939687,
          -10.72110550074847
        ]
      }
    },
    {
      "type": "Feature",
      "properties": {
        "norad_id": 44506,
        "name": "GPS BIII-2  (PRN 18)",
        "group": "gnss",
        "lat": 6.810370872133585,
        "lon": 154.29163008678267,
        "alt_km": 20044.37960646086,
        "timestamp": "2025-12-02T10:50:47.516464+00:00",
        "meta_object_name": "GPS BIII-2  (PRN 18)",
        "meta_object_id": "2019-056A",
        "meta_epoch": "2025-12-01T10:53:28.832352",
        "meta_mean_motion": 2.00565577,
        "meta_eccentricity": 0.00578098,
        "meta_inclination": 55.7254,
        "meta_ra_of_asc_node": 339.0016,
        "meta_arg_of_pericenter": 198.3769,
        "meta_mean_anomaly": 332.9368,
        "meta_ephemeris_type": 0,
        "meta_classification_type": "U",
        "meta_norad_cat_id": 44506,
        "meta_element_set_no": 999,
        "meta_rev_at_epoch": 4610,
        "meta_bstar": 0,
        "meta_mean_motion_dot": -5.6e-07,
        "meta_mean_motion_ddot": 0,
        "tle_line1": "1 44506U 19056A   25335.45380593 -.00000056  00000+0  00000+0 0  9995",
        "tle_line2": "2 44506  55.7254 339.0016 0057809 198.3769 332.9368  2.00565577 46105"
      },
      "geometry": {
        "type": "Point",
        "coordinates": [
          154.29163008678267,
          6.810370872133585
        ]
      }
    },
    {
      "type": "Feature",
      "properties": {
        "norad_id": 44542,
        "name": "BEIDOU-3 M24 (C46)",
        "group": "gnss",
        "lat": -1.9926870556865492,
        "lon": 10.80026652493729,
        "alt_km": 21553.633517303482,
        "timestamp": "2025-12-02T10:50:47.516484+00:00",
        "meta_object_name": "BEIDOU-3 M24 (C46)",
        "meta_object_id": "2019-061A",
        "meta_epoch": "2025-12-01T02:32:46.252896",
        "meta_mean_motion": 1.86229258,
        "meta_eccentricity": 0.00095598,
        "meta_inclination": 54.4002,
        "meta_ra_of_asc_node": 189.409,
        "meta_arg_of_pericenter": 23.5384,
        "meta_mean_anomaly": 336.5991,
        "meta_ephemeris_type": 0,
        "meta_classification_type": "U",
        "meta_norad_cat_id": 44542,
        "meta_element_set_no": 999,
        "meta_rev_at_epoch": 4210,
        "meta_bstar": 0,
        "meta_mean_motion_dot": 1.18e-06,
        "meta_mean_motion_ddot": 0,
        "tle_line1": "1 44542U 19061A   25335.10609089  .00000118  00000+0  00000+0 0  9995",
        "tle_line2": "2 44542  54.4002 189.4090 0009559  23.5384 336.5991  1.86229258 42106"
      },
      "geometry": {
        "type": "Point",
        "coordinates": [
          10.80026652493729,
          -1.9926870556865492
        ]
      }
    },
    {
      "type": "Feature",
      "properties": {
        "norad_id": 44543,
        "name": "BEIDOU-3 M23 (C45)",
        "group": "gnss",
        "lat": 54.04512602817134,
        "lon": -71.62042379020956,
        "alt_km": 21517.32751928712,
        "timestamp": "2025-12-02T10:50:47.516501+00:00",
        "meta_object_name": "BEIDOU-3 M23 (C45)",
        "meta_object_id": "2019-061B",
        "meta_epoch": "2025-12-02T01:08:19.108032",
        "meta_mean_motion": 1.86229309,
        "meta_eccentricity": 0.0006011,
        "meta_inclination": 54.3988,
        "meta_ra_of_asc_node": 189.3457,
        "meta_arg_of_pericenter": 20.9817,
        "meta_mean_anomaly": 163.1206,
        "meta_ephemeris_type": 0,
        "meta_classification_type": "U",
        "meta_norad_cat_id": 44543,
        "meta_element_set_no": 999,
        "meta_rev_at_epoch": 4212,
        "meta_bstar": 0,
        "meta_mean_motion_dot": 1.21e-06,
        "meta_mean_motion_ddot": 0,
        "tle_line1": "1 44543U 19061B   25336.04744338  .00000121  00000+0  00000+0 0  9991",
        "tle_line2": "2 44543  54.3988 189.3457 0006011  20.9817 163.1206  1.86229309 42129"
      },
      "geometry": {
        "type": "Point",
        "coordinates": [
          -71.62042379020956,
          54.04512602817134
        ]
      }
    },
    {
      "type": "Feature",
      "properties": {
        "norad_id": 44624,
        "name": "EUTELSAT 5 WEST B (EGNOS/PRN 121)",
        "group": "gnss",
        "lat": -0.09601636322479921,
        "lon": -130.77981369256275,
        "alt_km": 35771.66206505384,
        "timestamp": "2025-12-02T10:50:47.516519+00:00",
        "meta_object_name": "EUTELSAT 5 WEST B (EGNOS/PRN 121)",
        "meta_object_id": "2019-067A",
        "meta_epoch": "2025-12-02T03:29:12.439104",
        "meta_mean_motion": 1.00272616,
        "meta_eccentricity": 0.0003637,
        "meta_inclination": 0.0731,
        "meta_ra_of_asc_node": 325.5648,
        "meta_arg_of_pericenter": 286.6233,
        "meta_mean_anomaly": 226.3776,
        "meta_ephemeris_type": 0,
        "meta_classification_type": "U",
        "meta_norad_cat_id": 44624,
        "meta_element_set_no": 999,
        "meta_rev_at_epoch": 2246,
        "meta_bstar": 0,
        "meta_mean_motion_dot": -2.1e-07,
        "meta_mean_motion_ddot": 0,
        "tle_line1": "1 44624U 19067A   25336.14528286 -.00000021  00000+0  00000+0 0  9990",
        "tle_line2": "2 44624   0.0731 325.5648 0003637 286.6233 226.3776  1.00272616 22467"
      },
      "geometry": {
        "type": "Point",
        "coordinates": [
          -130.77981369256275,
          -0.09601636322479921
        ]
      }
    }
  ]
}